[{"OBJECT_NAME":"STARLINK-2524","OBJECT_ID":"2021-036AE","EPOCH":"2026-03-09T09:12:40.806432","MEAN_MOTION":15.06399211,"ECCENTRICITY":0.00011587,"INCLINATION":53.0546,"RA_OF_ASC_NODE":92.9921,"ARG_OF_PERICENTER":85.291,"MEAN_ANOMALY":274.8212,"EPHEMERIS_TYPE":0,"CLASSIFICATION_TYPE":"U","NORAD_CAT_ID":48304,"ELEMENT_SET_NO":999,"REV_AT_EPOCH":26812,"BSTAR":0.00024487552,"MEAN_MOTION_DOT":3.368e-5,"MEAN_MOTION_DDOT":0},{"OBJECT_NAME":"SL-24 R\/B","OBJECT_ID":"2010-030B","EPOCH":"2026-03-09T20:03:11.519136","MEAN_MOTION":14.28694925,"ECCENTRICITY":0.04193605,"INCLINATION":97.4475,"RA_OF_ASC_NODE":10.8424,"ARG_OF_PERICENTER":179.6805,"MEAN_ANOMALY":180.473,"EPHEMERIS_TYPE":0,"CLASSIFICATION_TYPE":"U","NORAD_CAT_ID":36606,"ELEMENT_SET_NO":999,"REV_AT_EPOCH":81697,"BSTAR":0.0001219417,"MEAN_MOTION_DOT":7.51e-6,"MEAN_MOTION_DDOT":0}]
